LEMUR-2-HUBBLE-4        
1 64565U 25135AP  26200.29454979  .00000405  00000+0  43625-4 0  9993
2 64565  97.7722 313.8301 0002986 152.5532 207.5846 14.93691716 58663
LEMUR-2-SEJONG-2        
1 64586U 25135BL  26200.25899670  .00002395  00000+0  21360-3 0  9994
2 64586  97.7709 315.0688 0004217 199.4650 160.6411 14.96930617 58748
LEMUR-2-HUBBLE-5        
1 64840U 25135BT  26200.23497417  .00000368  00000+0  39665-4 0  9994
2 64840  97.7742 314.4447 0004626 219.0014 141.0873 14.94218530 58691
LEMUR-2-KARENDARRELL    
1 64841U 25135BU  26200.06420529  .00003917  00000+0  31497-3 0  9993
2 64841  97.7722 316.2334 0012776  93.0297 267.2389 15.00530500 58799
LEMUR-2-LUCILLE-ROSE    
1 65403U 25135BV  26200.23775329  .00003185  00000+0  25696-3 0  9999
2 65403  97.7702 316.4414 0015319 177.0280 183.1037 15.00515555 53440
LEMUR-2-AFFIE-WAUWIE    
1 66295U 25248C   26200.29122538  .00012161  00000+0  44191-3 0  9993
2 66295  45.3911 300.8877 0009159 273.5136  86.4706 15.28363160 39500
OTTER SDM               
1 66678U 25276N   26200.17871295  .00003017  00000+0  14289-3 0  9992
2 66678  97.4197 273.1289 0004492 235.5851 124.4960 15.20082322 35270
LEMUR-2-STAS-GORBUK     
1 66686U 25276W   26200.20119204  .00002646  00000+0  12718-3 0  9992
2 66686  97.4230 273.2023 0003874 228.9240 131.1661 15.19680654 35278
LEMUR-2-TEODOR          
1 66768U 25276DG  26200.14977755  .00002870  00000+0  13118-3 0  9993
2 66768  97.4135 273.4286 0002167  84.8211 275.3272 15.21360535 35306
LEMUR-2-LAILA           
1 66776U 25276DQ  26200.11899128  .00002824  00000+0  12826-3 0  9990
2 66776  97.4158 273.5394 0002861  88.4325 271.7239 15.21586921 35300
LEMUR-2-CELIJO-SB-PK    
1 66781U 25276DW  26200.18659380  .00002932  00000+0  23839-3 0  9993
2 66781  97.5185 269.9077 0006765  54.7906 305.3951 15.00308705 27420
LEMUR-2-FINNIAN         
1 66782U 25276DX  26200.15598013  .00001369  00000+0  11280-3 0  9996
2 66782  97.5359 270.1540 0007070 343.4542  16.6451 15.00640841 24791
LEMUR-2-STARLIGHT       
1 66783U 25276DY  26200.13991300  .00003662  00000+0  30327-3 0  9992
2 66783  97.5234 269.6876 0014655  35.4306 324.7888 14.99384403 34987
LEMUR-2-TARTIFLETTE     
1 66784U 25276DZ  26200.20509456  .00003363  00000+0  27906-3 0  9995
2 66784  97.5232 269.7584 0013864  43.8497 316.3825 14.99367086 34995
LEMUR-2-VUKASIN         
1 66785U 25276EA  26200.17224293  .00002233  00000+0  18146-3 0  9996
2 66785  97.5207 270.0917 0002412  41.9946 318.1463 15.00565379 34949
LEMUR-2-HOTSPUR-TOM     
1 66786U 25276EB  26200.13302375  .00002910  00000+0  24281-3 0  9990
2 66786  97.5212 269.6614 0013653  35.7744 324.4392 14.99264226 34912
